EUTELSAT HOTBIRD 13G    
1 54225U 22146A   23333.75040167  .00000096  00000+0  00000+0 0  9990
2 54225   0.0531 252.5337 0006423   5.0768  93.9226  1.00269593  3882
CHINASAT 19 (ZX 19)     
1 54230U 22148A   23334.42500458 -.00000071  00000+0  00000+0 0  9991
2 54230   0.0130 283.2329 0006667 329.8375 132.3028  1.00273980  4048
GALAXY 31 (G-31)        
1 54243U 22153A   23333.65215296  .00000022  00000+0  00000+0 0  9993
2 54243   0.0144 298.7212 0002986 327.6468 275.7046  1.00272733  3820
GALAXY 32 (G-32)        
1 54244U 22153B   23333.51483104 -.00000165  00000+0  00000+0 0  9993
2 54244   0.0116 330.0412 0002136 331.9589 220.4899  1.00271541  3819
EUTELSAT 10B            
1 54259U 22157A   23333.74979251  .00000077  00000+0  00000+0 0  9992
2 54259   0.0603 104.8840 0005952 145.6719  97.7425  1.00268672  3712
GALAXY 35 (G-35)        
1 54741U 22170A   23334.15327437 -.00000154  00000+0  00000+0 0  9999
2 54741   0.0171 314.8450 0001807 304.5691 131.4579  1.00270713  3588
GALAXY 36 (G-36)        
1 54742U 22170B   23333.58671185 -.00000176  00000+0  00000+0 0  9992
2 54742   0.0192 332.5935 0000673 176.9377  40.8943  1.00269656  3581
METEOSAT-12 (MTG-I1)    
1 54743U 22170C   23334.10529962 -.00000022  00000+0  00000+0 0  9997
2 54743   0.4312 338.1069 0002145 257.7604 227.5319  1.00267048  3648
SHIJIAN-23 (SJ-23)      
1 55131U 23002A   23333.57833512 -.00000003  00000+0  00000+0 0  9992
2 55131   1.3119  90.3389 0001451 202.5401 154.9079  1.00267896  3174
USA 340                 
1 55138U 22144E   23323.25743851 -.00000217  00000+0  00000+0 0  9992
2 55138   3.0371  68.6619 0001066 236.7562 125.8305  1.00200315  2354
USA 342                 
1 55263U 23008A   23332.38181867 -.00000040  00000+0  00000+0 0  9992
2 55263   0.1033  88.9454 0041550 286.1243 163.3379  1.01150043  3188
LDPE-3A                 
1 55264U 23008B   23333.53950184 -.00000097  00000+0  00000+0 0  9999
2 55264   0.7278  89.1830 0002733 263.0936  62.9275  1.00608362  2471
ELEKTRO-L 4             
1 55506U 23016A   23334.34781166 -.00000049  00000+0  00000+0 0  9996
2 55506   0.0931 113.4264 0002299 156.9932  89.5688  1.00271535  2992
AMAZONAS NEXUS          
1 55508U 23017A   23334.45198163 -.00000274  00000+0  00000+0 0  9990
2 55508   0.0425  38.0182 0001885 233.7657 258.9978  1.00269547  2939
CHINASAT 26 (ZX 26)     
1 55686U 23023A   23334.05743811 -.00000345  00000+0  00000+0 0  9995
2 55686   0.0641  83.2462 0000313 165.7564 325.4594  1.00266415  2918
LUCH-5X (OLYMP-K 2)     
1 55841U 23031A   23333.53345392  .00000029  00000+0  00000+0 0  9999
2 55841   0.0350  40.9562 0001914 208.4968  13.9171  1.00272021  2628
GAOFEN-13 02            
1 55912U 23036A   23333.61387332 -.00000224  00000+0  00000+0 0  9990
2 55912   2.4704 302.4610 0004696 303.0571 190.3250  1.00267702  2761
SES-18                  
1 55970U 23038A   23334.44362744 -.00000093  00000+0  00000+0 0  9992
2 55970   0.0158 278.4450 0003145 341.7586 225.4682  1.00271812  2798
SES-19                  
1 55971U 23038B   23334.17569764  .00000096  00000+0  00000+0 0  9996
2 55971   0.0079 315.2149 0001709 294.9740 106.9431  1.00270666  2769
INTELSAT 40E (IS-40E)   
1 56174U 23052A   23334.09007887 -.00000165  00000+0  00000+0 0  9990
2 56174   0.0156 343.1807 0002719 248.7342 138.2209  1.00269620  2511
VIASAT-3                
1 56370U 23060A   23334.15327437 -.00000177  00000+0  00000+0 0  9993
2 56370   0.0103 281.6195 0000562  97.6569  15.8163  1.00271579  2114
ARCTURUS                
1 56371U 23060B   23333.78706022  .00000136  00000+0  00000+0 0  9997
2 56371   0.3652  89.8800 0002977 196.7809 262.1179  1.00270408  2123
GS-1                    
1 56372U 23060C   23334.56520620 -.00000075  00000+0  00000+0 0  9996
2 56372   0.3285  87.2933 0003979 236.6824  96.6824  1.00934737  2128
BEIDOU-3 G4             
1 56564U 23066A   23333.77964132 -.00000102  00000+0  00000+0 0  9998
2 56564   2.6266 288.4930 0004487 238.7460 341.7820  1.00273554  2078
ARABSAT-7B (BADR-8)     
1 56757U 23075A   23333.85257812  .00000153  00000+0  00000+0 0  9996
2 56757   0.0783  28.3601 0003005 293.2341  79.7961  1.00269356  1802
IRNSS-1J (NVS-01)       
1 56759U 23076A   23333.52820573 -.00000325  00000+0  00000+0 0  9995
2 56759   4.5163 270.4103 0008132 347.6329 129.8628  1.00272997  1787
H2SAT (HEINRICH HERTZ)  
1 57213U 23093A   23333.74787801  .00000009  00000+0  00000+0 0  9998
2 57213   0.0537 104.8616 0000241 159.7886  73.4455  1.00269049  1541
JUPITER 3 (ECHOSTAR 24) 
1 57479U 23108A   23334.07357899 -.00000141  00000+0  00000+0 0  9994
2 57479   0.0435  89.0895 0001712 264.0240   6.8996  1.00270980  1325
GALAXY 37 (G-37)        
1 57493U 23112A   23334.06864681  .00000056  00000+0  00000+0 0  9990
2 57493   0.0142 342.4339 0002148 270.7805  73.2135  1.00272716  1197
LUDI TANCE-4 01A        
1 57624U 23120A   23333.69401091 -.00000169  00000+0  00000+0 0  9991
2 57624  15.9743 216.4911 0002685  57.4465 133.9903  1.00268621  1208
TJS-10                  
1 58204U 23169A   23333.58382816  .00000015  00000+0  00000+0 0  9999
2 58204   0.1319  85.4326 0004316 243.4655 123.0766  1.00267552   212
CHINASAT 6E (ZX 6E)     
1 58253U 23172A   23333.84373625 -.00000338  00000+0  00000+0 0  9993
2 58253   0.0388 251.5526 0000788 284.1063 318.5723  0.99884862   325
